NORAD_CAT_ID,OBJECT_NAME,OBJECT_TYPE,EPOCH,MEAN_MOTION,ECCENTRICITY,INCLINATION,RA_OF_ASC_NODE,ARG_OF_PERICENTER,MEAN_ANOMALY,BSTAR,MEAN_MOTION_DOT,MEAN_MOTION_DDOT,TLE_LINE0,TLE_LINE1,TLE_LINE2,SEMIMAJOR_AXIS,PERIOD,APOGEE,PERIGEE,DECAYED
55922.0,STARLINK-5863,PAYLOAD,2024-02-10 03:14:33,14.98358243,0.0003063,69.9988,57.0165,270.5619,89.5189,0.00028687,3.334e-05,0.0,0 STARLINK-5863,1 55922U 23037J   24041.13510484  .00003334  00000-0  28687-3 0  9992,2 55922  69.9988  57.0165 0003063 270.5619  89.5189 14.98358243 50204,6950.106,96.105,574.099,569.842,0.0
55922.0,STARLINK-5863,PAYLOAD,2024-02-10 11:15:15,14.98326059,0.0002887,69.9989,56.1747,271.894,88.1889,-9.3328e-05,-1.206e-05,0.0,0 STARLINK-5863,1 55922U 23037J   24041.46893413 -.00001206  00000-0 -93328-4 0  9997,2 55922  69.9989  56.1747 0002887 271.8940  88.1889 14.98326059 50252,6950.205,96.107,574.077,570.064,0.0
55922.0,STARLINK-5863,PAYLOAD,2024-02-10 17:39:48,14.98320978,0.0002886,69.9989,55.5017,271.1686,88.9143,-0.00019503,-2.419e-05,0.0,0 STARLINK-5863,1 55922U 23037J   24041.73597992 -.00002419  00000-0 -19503-3 0  9999,2 55922  69.9989  55.5017 0002886 271.1686  88.9143 14.98320978 49954,6950.221,96.108,574.092,570.08,0.0
55922.0,STARLINK-5863,PAYLOAD,2024-02-11 11:17:17,14.98323728,0.0003093,69.9988,53.65,270.8802,89.2002,-8.7087e-05,-1.132e-05,0.0,0 STARLINK-5863,1 55922U 23037J   24042.47033854 -.00001132  00000-0 -87087-4 0  9997,2 55922  69.9988  53.6500 0003093 270.8802  89.2002 14.98323728 50402,6950.212,96.107,574.227,569.928,0.0
55922.0,STARLINK-5863,PAYLOAD,2024-02-11 16:05:40,14.9833461,0.0003195,69.9991,53.1451,270.1086,89.9707,-0.00012432,-1.576e-05,0.0,0 STARLINK-5863,1 55922U 23037J   24042.67061249 -.00001576  00000-0 -12432-3 0  9991,2 55922  69.9991  53.1451 0003195 270.1086  89.9707 14.98334610 50092,6950.179,96.107,574.264,569.823,0.0
55922.0,STARLINK-5863,PAYLOAD,2024-02-12 03:18:36,14.98342687,0.0002755,69.999,51.9668,267.7324,92.352,-0.00015461,-1.938e-05,0.0,0 STARLINK-5863,1 55922U 23037J   24043.13792679 -.00001938  00000-0 -15461-3 0  9998,2 55922  69.9990  51.9668 0002755 267.7324  92.3520 14.98342687 50505,6950.154,96.106,573.933,570.104,0.0
55922.0,STARLINK-5863,PAYLOAD,2024-02-12 09:43:08,14.9834767,0.0002654,69.9992,51.2932,266.0681,94.0174,-6.4923e-05,-8.68e-06,0.0,0 STARLINK-5863,1 55922U 23037J   24043.40496001 -.00000868  00000-0 -64923-4 0  9997,2 55922  69.9992  51.2932 0002654 266.0681  94.0174 14.98347670 50208,6950.138,96.106,573.848,570.159,0.0
55922.0,STARLINK-5863,PAYLOAD,2024-02-13 03:20:39,14.98313708,0.0002775,69.9992,49.4417,267.8442,92.24,8.2646e-05,8.93e-06,0.0,0 STARLINK-5863,1 55922U 23037J   24044.13934124  .00000893  00000-0  82646-4 0  9999,2 55922  69.9992  49.4417 0002775 267.8442  92.2400 14.98313708 50659,6950.243,96.108,574.037,570.18,0.0
55922.0,STARLINK-5863,PAYLOAD,2024-02-13 09:45:11,14.98322277,0.0002702,69.9993,48.7685,268.2365,91.8485,0.00010953,1.214e-05,0.0,0 STARLINK-5863,1 55922U 23037J   24044.40637808  .00001214  00000-0  10953-3 0  9997,2 55922  69.9993  48.7685 0002702 268.2365  91.8485 14.98322277 50691,6950.217,96.107,573.96,570.204,0.0
55922.0,STARLINK-5863,PAYLOAD,2024-02-13 17:45:51,14.98325891,0.0002694,69.9994,47.9268,268.512,91.573,7.1986e-05,7.66e-06,0.0,0 STARLINK-5863,1 55922U 23037J   24044.74017865  .00000766  00000-0  71986-4 0  9994,2 55922  69.9994  47.9268 0002694 268.5120  91.5730 14.98325891 50406,6950.206,96.107,573.943,570.198,0.0
55922.0,STARLINK-5863,PAYLOAD,2024-02-14 09:47:11,14.98335854,0.0002582,69.9999,46.2427,264.3732,95.7133,5.4079e-05,5.52e-06,0.0,0 STARLINK-5863,1 55922U 23037J   24045.40777364  .00000552  00000-0  54079-4 0  9992,2 55922  69.9999  46.2427 0002582 264.3732  95.7133 14.98335854 50840,6950.175,96.107,573.834,570.245,0.0
55922.0,STARLINK-5863,PAYLOAD,2024-02-14 17:47:52,14.9833452,0.0002605,70.0,45.4007,264.6308,95.4554,1.4771e-05,8.3e-07,0.0,0 STARLINK-5863,1 55922U 23037J   24045.74157509  .00000083  00000-0  14771-4 0  9996,2 55922  70.0000  45.4007 0002605 264.6308  95.4554 14.98334520 50550,6950.179,96.107,573.854,570.233,0.0
55922.0,STARLINK-5863,PAYLOAD,2024-02-15 03:24:40,14.98327628,0.0002622,69.9998,44.391,265.1004,94.9856,0.00012871,1.443e-05,0.0,0 STARLINK-5863,1 55922U 23037J   24046.14213867  .00001443  00000-0  12871-3 0  9990,2 55922  69.9998  44.3910 0002622 265.1004  94.9856 14.98327628 50956,6950.2,96.107,573.888,570.243,0.0
55922.0,STARLINK-5863,PAYLOAD,2024-02-15 09:49:12,14.98329411,0.0002631,70.0,43.7187,268.2493,91.8365,0.00013645,1.535e-05,0.0,0 STARLINK-5863,1 55922U 23037J   24046.40917801  .00001535  00000-0  13645-3 0  9990,2 55922  70.0000  43.7187 0002631 268.2493  91.8365 14.98329411 50658,6950.195,96.107,573.888,570.231,0.0
55922.0,STARLINK-5863,PAYLOAD,2024-02-15 22:38:17,14.98336123,0.0002593,70.0001,42.372,269.3856,90.7006,3.517e-05,3.27e-06,0.0,0 STARLINK-5863,1 55922U 23037J   24046.94325626  .00000327  00000-0  35170-4 0  9993,2 55922  70.0001  42.3720 0002593 269.3856  90.7006 14.98336123 50736,6950.174,96.107,573.841,570.237,0.0
55922.0,STARLINK-5863,PAYLOAD,2024-02-16 03:26:41,14.98328715,0.0002747,70.0001,41.867,267.9633,92.1211,0.00014119,1.592e-05,0.0,0 STARLINK-5863,1 55922U 23037J   24047.14353850  .00001592  00000-0  14119-3 0  9990,2 55922  70.0001  41.8670 0002747 267.9633  92.1211 14.98328715 51106,6950.197,96.107,573.971,570.153,0.0
55922.0,STARLINK-5863,PAYLOAD,2024-02-16 09:51:13,14.98334946,0.0002631,70.0003,41.1938,267.8888,92.197,0.00011876,1.324e-05,0.0,0 STARLINK-5863,1 55922U 23037J   24047.41057455  .00001324  00000-0  11876-3 0  9992,2 55922  70.0003  41.1938 0002631 267.8888  92.1970 14.98334946 50802,6950.178,96.107,573.871,570.214,0.0
55922.0,STARLINK-5863,PAYLOAD,2024-02-17 03:28:42,14.98330721,0.0002578,70.0005,39.3422,270.3777,89.7087,8.221e-05,8.88e-06,0.0,0 STARLINK-5863,1 55922U 23037J   24048.14493716  .00000888  00000-0  82210-4 0  9992,2 55922  70.0005  39.3422 0002578 270.3777  89.7087 14.98330721 51255,6950.191,96.107,573.847,570.264,0.0
55922.0,STARLINK-5863,PAYLOAD,2024-02-17 08:17:06,14.9833065,0.0002451,70.0008,38.8373,267.5581,92.5297,0.00010818,1.198e-05,0.0,0 STARLINK-5863,1 55922U 23037J   24048.34521701  .00001198  00000-0  10818-3 0  9999,2 55922  70.0008  38.8373 0002451 267.5581  92.5297 14.98330650 50949,6950.191,96.107,573.759,570.352,0.0
55922.0,STARLINK-5863,PAYLOAD,2024-02-17 16:17:47,14.98333064,0.0002512,70.0008,37.9964,266.4474,93.6398,5.7696e-05,5.96e-06,0.0,0 STARLINK-5863,1 55922U 23037J   24048.67901646  .00000596  00000-0  57696-4 0  9992,2 55922  70.0008  37.9964 0002512 266.4474  93.6398 14.98333064 50993,6950.183,96.107,573.794,570.303,0.0
55922.0,STARLINK-5863,PAYLOAD,2024-02-18 08:19:07,14.98333698,0.0002626,70.0009,36.313,265.8634,94.2225,9.3672e-05,1.025e-05,0.0,0 STARLINK-5863,1 55922U 23037J   24049.34661337  .00001025  00000-0  93672-4 0  9999,2 55922  70.0009  36.3130 0002626 265.8634  94.2225 14.98333698 51438,6950.181,96.107,573.872,570.221,0.0
55922.0,STARLINK-5863,PAYLOAD,2024-02-19 08:21:08,14.98331079,0.0002503,70.001,33.7879,262.3911,97.6964,5.8256e-05,6.02e-06,0.0,0 STARLINK-5863,1 55922U 23037J   24050.34801438  .00000602  00000-0  58256-4 0  9998,2 55922  70.0010  33.7879 0002503 262.3911  97.6964 14.98331079 51589,6950.19,96.107,573.794,570.315,0.0
55922.0,STARLINK-5863,PAYLOAD,2024-02-19 16:21:49,14.9832251,0.0002481,70.0013,32.9449,266.6909,93.3966,7.9304e-05,8.53e-06,0.0,0 STARLINK-5863,1 55922U 23037J   24050.68182021  .00000853  00000-0  79304-4 0  9990,2 55922  70.0013  32.9449 0002481 266.6909  93.3966 14.98322510 51636,6950.216,96.107,573.805,570.357,0.0
55922.0,STARLINK-5863,PAYLOAD,2024-02-20 08:23:09,14.98322978,0.0002501,70.0011,31.2617,262.5018,97.5857,4.8119e-05,4.81e-06,0.0,0 STARLINK-5863,1 55922U 23037J   24051.34942087  .00000481  00000-0  48119-4 0  9997,2 55922  70.0011  31.2617 0002501 262.5018  97.5857 14.98322978 51398,6950.215,96.107,573.818,570.341,0.0
55922.0,STARLINK-5863,PAYLOAD,2024-02-20 16:23:49,14.98330197,0.0002699,70.0013,30.4205,267.5396,92.5454,4.6054e-05,4.57e-06,0.0,0 STARLINK-5863,1 55922U 23037J   24051.68321651  .00000457  00000-0  46054-4 0  9991,2 55922  70.0013  30.4205 0002699 267.5396  92.5454 14.98330197 51789,6950.192,96.107,573.933,570.181,0.0
55922.0,STARLINK-5863,PAYLOAD,2024-02-20 22:48:21,14.98333289,0.00027,70.0006,29.7487,275.7416,84.3435,8.1801e-05,8.83e-06,0.0,0 STARLINK-5863,1 55922U 23037J   24051.95025401  .00000883  00000-0  81801-4 0  9997,2 55922  70.0006  29.7487 0002700 275.7416  84.3435 14.98333289 51481,6950.183,96.107,573.924,570.171,0.0
55922.0,STARLINK-5863,PAYLOAD,2024-02-21 03:36:47,14.98319163,0.0002654,70.0009,29.2431,267.447,92.6385,-5.9998e-05,-8.09e-06,0.0,0 STARLINK-5863,1 55922U 23037J   24052.15054624 -.00000809  00000-0 -59998-4 0  9991,2 55922  70.0009  29.2431 0002654 267.4470  92.6385 14.98319163 51856,6950.226,96.108,573.936,570.247,0.0
55922.0,STARLINK-5863,PAYLOAD,2024-02-21 08:25:11,14.98321243,0.0002689,70.0009,28.7385,269.5969,90.4882,-3.4869e-05,-5.09e-06,0.0,0 STARLINK-5863,1 55922U 23037J   24052.35082556 -.00000509  00000-0 -34869-4 0  9995,2 55922  70.0009  28.7385 0002689 269.5969  90.4882 14.98321243 51548,6950.22,96.108,573.954,570.216,0.0
55922.0,STARLINK-5863,PAYLOAD,2024-02-21 22:50:23,14.98323252,0.0003104,70.0005,27.2231,270.9648,89.1155,8.9256e-05,9.72e-06,0.0,0 STARLINK-5863,1 55922U 23037J   24052.95166200  .00000972  00000-0  89256-4 0  9992,2 55922  70.0005  27.2231 0003104 270.9648  89.1155 14.98323252 51631,6950.214,96.107,574.236,569.921,0.0
55922.0,STARLINK-5863,PAYLOAD,2024-02-22 03:38:47,14.98327546,0.0002647,70.0017,26.719,267.457,92.6286,0.00012676,1.42e-05,0.0,0 STARLINK-5863,1 55922U 23037J   24053.15193924  .00001420  00000-0  12676-3 0  9998,2 55922  70.0017  26.7190 0002647 267.4570  92.6286 14.98327546 52004,6950.2,96.107,573.905,570.226,0.0
